CCSDS_OMM_VERS = 2.0
CREATION_DATE  = 
ORIGINATOR     = 

OBJECT_NAME    = STARLINK-35460
OBJECT_ID      = 2025-253K
CENTER_NAME    = EARTH
REF_FRAME      = TEME
TIME_SYSTEM    = UTC
MEAN_ELEMENT_THEORY = SGP/SGP4

EPOCH          = 2025-11-25T02:00:03.000384
MEAN_MOTION    = 15.59649760
ECCENTRICITY   = .000148
INCLINATION    = 43.0000
RA_OF_ASC_NODE = 88.0185
ARG_OF_PERICENTER = 267.7889
MEAN_ANOMALY   = 16.6170

EPHEMERIS_TYPE = 0
CLASSIFICATION_TYPE = U
NORAD_CAT_ID   = 66328
ELEMENT_SET_NO = 999
REV_AT_EPOCH   = 418
BSTAR          = -.28322E-1
MEAN_MOTION_DOT = -.2032699E-1
MEAN_MOTION_DDOT = 0

CCSDS_OMM_VERS = 2.0
CREATION_DATE  = 
ORIGINATOR     = 

OBJECT_NAME    = STARLINK-35505
OBJECT_ID      = 2025-253L
CENTER_NAME    = EARTH
REF_FRAME      = TEME
TIME_SYSTEM    = UTC
MEAN_ELEMENT_THEORY = SGP/SGP4

EPOCH          = 2025-11-25T02:00:03.000384
MEAN_MOTION    = 15.59651662
ECCENTRICITY   = .0001429
INCLINATION    = 43.0004
RA_OF_ASC_NODE = 88.0685
ARG_OF_PERICENTER = 265.7502
MEAN_ANOMALY   = 359.4849

EPHEMERIS_TYPE = 0
CLASSIFICATION_TYPE = U
NORAD_CAT_ID   = 66329
ELEMENT_SET_NO = 999
REV_AT_EPOCH   = 409
BSTAR          = -.28364E-1
MEAN_MOTION_DOT = -.2035421E-1
MEAN_MOTION_DDOT = 0

CCSDS_OMM_VERS = 2.0
CREATION_DATE  = 
ORIGINATOR     = 

OBJECT_NAME    = STARLINK-35512
OBJECT_ID      = 2025-253M
CENTER_NAME    = EARTH
REF_FRAME      = TEME
TIME_SYSTEM    = UTC
MEAN_ELEMENT_THEORY = SGP/SGP4

EPOCH          = 2025-11-25T02:00:03.000384
MEAN_MOTION    = 15.59649097
ECCENTRICITY   = .0001523
INCLINATION    = 43.0002
RA_OF_ASC_NODE = 88.0442
ARG_OF_PERICENTER = 272.2438
MEAN_ANOMALY   = 2.5747

EPHEMERIS_TYPE = 0
CLASSIFICATION_TYPE = U
NORAD_CAT_ID   = 66330
ELEMENT_SET_NO = 999
REV_AT_EPOCH   = 409
BSTAR          = -.28298E-1
MEAN_MOTION_DOT = -.2031194E-1
MEAN_MOTION_DDOT = 0

CCSDS_OMM_VERS = 2.0
CREATION_DATE  = 
ORIGINATOR     = 

OBJECT_NAME    = STARLINK-35257
OBJECT_ID      = 2025-253N
CENTER_NAME    = EARTH
REF_FRAME      = TEME
TIME_SYSTEM    = UTC
MEAN_ELEMENT_THEORY = SGP/SGP4

EPOCH          = 2025-11-25T02:00:03.000384
MEAN_MOTION    = 15.59651640
ECCENTRICITY   = .0001646
INCLINATION    = 42.9999
RA_OF_ASC_NODE = 88.0051
ARG_OF_PERICENTER = 269.9639
MEAN_ANOMALY   = 20.1902

EPHEMERIS_TYPE = 0
CLASSIFICATION_TYPE = U
NORAD_CAT_ID   = 66331
ELEMENT_SET_NO = 999
REV_AT_EPOCH   = 382
BSTAR          = -.28341E-1
MEAN_MOTION_DOT = -.2034172E-1
MEAN_MOTION_DDOT = 0

CCSDS_OMM_VERS = 2.0
CREATION_DATE  = 
ORIGINATOR     = 

OBJECT_NAME    = STARLINK-35322
OBJECT_ID      = 2025-253P
CENTER_NAME    = EARTH
REF_FRAME      = TEME
TIME_SYSTEM    = UTC
MEAN_ELEMENT_THEORY = SGP/SGP4

EPOCH          = 2025-11-25T02:00:03.000384
MEAN_MOTION    = 15.59648466
ECCENTRICITY   = .0001499
INCLINATION    = 43.0001
RA_OF_ASC_NODE = 88.0287
ARG_OF_PERICENTER = 270.7696
MEAN_ANOMALY   = 9.8001

EPHEMERIS_TYPE = 0
CLASSIFICATION_TYPE = U
NORAD_CAT_ID   = 66332
ELEMENT_SET_NO = 999
REV_AT_EPOCH   = 409
BSTAR          = -.28272E-1
MEAN_MOTION_DOT = -.2029464E-1
MEAN_MOTION_DDOT = 0

CCSDS_OMM_VERS = 2.0
CREATION_DATE  = 
ORIGINATOR     = 

OBJECT_NAME    = STARLINK-35400
OBJECT_ID      = 2025-253Q
CENTER_NAME    = EARTH
REF_FRAME      = TEME
TIME_SYSTEM    = UTC
MEAN_ELEMENT_THEORY = SGP/SGP4

EPOCH          = 2025-11-25T02:00:03.000384
MEAN_MOTION    = 15.59647270
ECCENTRICITY   = .000147
INCLINATION    = 43.0000
RA_OF_ASC_NODE = 88.0091
ARG_OF_PERICENTER = 267.5422
MEAN_ANOMALY   = 20.6996

EPHEMERIS_TYPE = 0
CLASSIFICATION_TYPE = U
NORAD_CAT_ID   = 66333
ELEMENT_SET_NO = 999
REV_AT_EPOCH   = 409
BSTAR          = -.28282E-1
MEAN_MOTION_DOT = -.2030011E-1
MEAN_MOTION_DDOT = 0

CCSDS_OMM_VERS = 2.0
CREATION_DATE  = 
ORIGINATOR     = 

OBJECT_NAME    = STARLINK-35407
OBJECT_ID      = 2025-253R
CENTER_NAME    = EARTH
REF_FRAME      = TEME
TIME_SYSTEM    = UTC
MEAN_ELEMENT_THEORY = SGP/SGP4

EPOCH          = 2025-11-25T02:00:03.000384
MEAN_MOTION    = 15.59650200
ECCENTRICITY   = .0001499
INCLINATION    = 43.0000
RA_OF_ASC_NODE = 88.0246
ARG_OF_PERICENTER = 267.3083
MEAN_ANOMALY   = 15.1818

EPHEMERIS_TYPE = 0
CLASSIFICATION_TYPE = U
NORAD_CAT_ID   = 66334
ELEMENT_SET_NO = 999
REV_AT_EPOCH   = 409
BSTAR          = -.28351E-1
MEAN_MOTION_DOT = -.2034535E-1
MEAN_MOTION_DDOT = 0

CCSDS_OMM_VERS = 2.0
CREATION_DATE  = 
ORIGINATOR     = 

OBJECT_NAME    = STARLINK-35417
OBJECT_ID      = 2025-253S
CENTER_NAME    = EARTH
REF_FRAME      = TEME
TIME_SYSTEM    = UTC
MEAN_ELEMENT_THEORY = SGP/SGP4

EPOCH          = 2025-11-25T02:00:03.000384
MEAN_MOTION    = 15.59646427
ECCENTRICITY   = .0001481
INCLINATION    = 43.0001
RA_OF_ASC_NODE = 87.9858
ARG_OF_PERICENTER = 269.0041
MEAN_ANOMALY   = 28.8225

EPHEMERIS_TYPE = 0
CLASSIFICATION_TYPE = U
NORAD_CAT_ID   = 66335
ELEMENT_SET_NO = 999
REV_AT_EPOCH   = 409
BSTAR          = -.28256E-1
MEAN_MOTION_DOT = -.2028349E-1
MEAN_MOTION_DDOT = 0

CCSDS_OMM_VERS = 2.0
CREATION_DATE  = 
ORIGINATOR     = 

OBJECT_NAME    = STARLINK-35404
OBJECT_ID      = 2025-253T
CENTER_NAME    = EARTH
REF_FRAME      = TEME
TIME_SYSTEM    = UTC
MEAN_ELEMENT_THEORY = SGP/SGP4

EPOCH          = 2025-11-25T02:00:03.000384
MEAN_MOTION    = 15.59644756
ECCENTRICITY   = .0001602
INCLINATION    = 42.9998
RA_OF_ASC_NODE = 88.0004
ARG_OF_PERICENTER = 269.2969
MEAN_ANOMALY   = 22.7798

EPHEMERIS_TYPE = 0
CLASSIFICATION_TYPE = U
NORAD_CAT_ID   = 66336
ELEMENT_SET_NO = 999
REV_AT_EPOCH   = 418
BSTAR          = -.28238E-1
MEAN_MOTION_DOT = -.2027165E-1
MEAN_MOTION_DDOT = 0

CCSDS_OMM_VERS = 2.0
CREATION_DATE  = 
ORIGINATOR     = 

OBJECT_NAME    = STARLINK-34783
OBJECT_ID      = 2025-253U
CENTER_NAME    = EARTH
REF_FRAME      = TEME
TIME_SYSTEM    = UTC
MEAN_ELEMENT_THEORY = SGP/SGP4

EPOCH          = 2025-11-25T02:00:03.000384
MEAN_MOTION    = 15.59648104
ECCENTRICITY   = .0001525
INCLINATION    = 43.0001
RA_OF_ASC_NODE = 87.9813
ARG_OF_PERICENTER = 268.5461
MEAN_ANOMALY   = 31.1978

EPHEMERIS_TYPE = 0
CLASSIFICATION_TYPE = U
NORAD_CAT_ID   = 66337
ELEMENT_SET_NO = 999
REV_AT_EPOCH   = 413
BSTAR          = -.28297E-1
MEAN_MOTION_DOT = -.2031061E-1
MEAN_MOTION_DDOT = 0

CCSDS_OMM_VERS = 2.0
CREATION_DATE  = 
ORIGINATOR     = 

OBJECT_NAME    = STARLINK-35477
OBJECT_ID      = 2025-253V
CENTER_NAME    = EARTH
REF_FRAME      = TEME
TIME_SYSTEM    = UTC
MEAN_ELEMENT_THEORY = SGP/SGP4

EPOCH          = 2025-11-25T02:00:03.000384
MEAN_MOTION    = 15.59646256
ECCENTRICITY   = .0001506
INCLINATION    = 42.9998
RA_OF_ASC_NODE = 87.9912
ARG_OF_PERICENTER = 269.3853
MEAN_ANOMALY   = 26.5256

EPHEMERIS_TYPE = 0
CLASSIFICATION_TYPE = U
NORAD_CAT_ID   = 66338
ELEMENT_SET_NO = 999
REV_AT_EPOCH   = 418
BSTAR          = -.28272E-1
MEAN_MOTION_DOT = -.2029324E-1
MEAN_MOTION_DDOT = 0

CCSDS_OMM_VERS = 2.0
CREATION_DATE  = 
ORIGINATOR     = 

OBJECT_NAME    = STARLINK-35443
OBJECT_ID      = 2025-253W
CENTER_NAME    = EARTH
REF_FRAME      = TEME
TIME_SYSTEM    = UTC
MEAN_ELEMENT_THEORY = SGP/SGP4

EPOCH          = 2025-11-25T02:00:03.000384
MEAN_MOTION    = 15.59647825
ECCENTRICITY   = .0001551
INCLINATION    = 42.9998
RA_OF_ASC_NODE = 87.9657
ARG_OF_PERICENTER = 268.4301
MEAN_ANOMALY   = 37.0652

EPHEMERIS_TYPE = 0
CLASSIFICATION_TYPE = U
NORAD_CAT_ID   = 66339
ELEMENT_SET_NO = 999
REV_AT_EPOCH   = 413
BSTAR          = -.28287E-1
MEAN_MOTION_DOT = -.2030413E-1
MEAN_MOTION_DDOT = 0

