STARLINK-35460          
1 66328U 25253K   25329.08336806 -.02032699  00000+0 -28322-1 0  9997
2 66328  43.0000  88.0185 0001480 267.7889  16.6170 15.59649760  4180
STARLINK-35505          
1 66329U 25253L   25329.08336806 -.02035421  00000+0 -28364-1 0  9990
2 66329  43.0004  88.0685 0001429 265.7502 359.4849 15.59651662  4098
STARLINK-35512          
1 66330U 25253M   25329.08336806 -.02031194  00000+0 -28298-1 0  9991
2 66330  43.0002  88.0442 0001523 272.2438   2.5747 15.59649097  4097
STARLINK-35257          
1 66331U 25253N   25329.08336806 -.02034172  00000+0 -28341-1 0  9990
2 66331  42.9999  88.0051 0001646 269.9639  20.1902 15.59651640  3825
STARLINK-35322          
1 66332U 25253P   25329.08336806 -.02029464  00000+0 -28272-1 0  9992
2 66332  43.0001  88.0287 0001499 270.7696   9.8001 15.59648466  4098
STARLINK-35400          
1 66333U 25253Q   25329.08336806 -.02030011  00000+0 -28282-1 0  9994
2 66333  43.0000  88.0091 0001470 267.5422  20.6996 15.59647270  4097
STARLINK-35407          
1 66334U 25253R   25329.08336806 -.02034535  00000+0 -28351-1 0  9997
2 66334  43.0000  88.0246 0001499 267.3083  15.1818 15.59650200  4091
STARLINK-35417          
1 66335U 25253S   25329.08336806 -.02028349  00000+0 -28256-1 0  9998
2 66335  43.0001  87.9858 0001481 269.0041  28.8225 15.59646427  4093
STARLINK-35404          
1 66336U 25253T   25329.08336806 -.02027165  00000+0 -28238-1 0  9994
2 66336  42.9998  88.0004 0001602 269.2969  22.7798 15.59644756  4189
STARLINK-34783          
1 66337U 25253U   25329.08336806 -.02031061  00000+0 -28297-1 0  9990
2 66337  43.0001  87.9813 0001525 268.5461  31.1978 15.59648104  4136
STARLINK-35477          
1 66338U 25253V   25329.08336806 -.02029324  00000+0 -28272-1 0  9993
2 66338  42.9998  87.9912 0001506 269.3853  26.5256 15.59646256  4181
STARLINK-35443          
1 66339U 25253W   25329.08336806 -.02030413  00000+0 -28287-1 0  9991
2 66339  42.9998  87.9657 0001551 268.4301  37.0652 15.59647825  4131
